NIGHTJAR                
1 60535U 24149BV  26068.64552146  .00004278  00000+0  36344-3 0  9997
2 60535  97.6919 146.7603 0002393  83.3363 276.8132 14.98398810127967
STARLINK-33790          
1 64029U 25102H   26068.51176154  .00003510  00000+0  30189-3 0  9995
2 64029  70.0019 114.9764 0002847 259.5585 100.5253 14.98323551 45974
